{"type": "FeatureCollection", "features": [{"type": "Feature", "properties": {"norad_id": 22490, "name": "SCD 1", "group": "resource", "lat": 19.694174045866962, "lon": -61.401858266452884, "alt_km": 709.6346633772646, "timestamp": "2025-12-17T15:50:09.433191+00:00", "meta": {"OBJECT_NAME": "SCD 1", "OBJECT_ID": "1993-009B", "EPOCH": "2025-12-17T02:51:01.760832", "MEAN_MOTION": 14.46002208, "ECCENTRICITY": 0.00419834, "INCLINATION": 24.9689, "RA_OF_ASC_NODE": 251.6554, "ARG_OF_PERICENTER": 11.4415, "MEAN_ANOMALY": 99.0431, "EPHEMERIS_TYPE": 0, "CLASSIFICATION_TYPE": "U", "NORAD_CAT_ID": 22490, "ELEMENT_SET_NO": 999, "REV_AT_EPOCH": 73473, "BSTAR": 8.1161296e-05, "MEAN_MOTION_DOT": 4.82e-06, "MEAN_MOTION_DDOT": 0}, "tle": {"line1": "1 22490U 93009B   25351.11877038  .00000482  00000+0  81161-4 0  9993", "line2": "2 22490  24.9689 251.6554 0041983  11.4415  99.0431 14.46002208734733"}}, "geometry": {"type": "Point", "coordinates": [-61.401858266452884, 19.694174045866962]}}, {"type": "Feature", "properties": {"norad_id": 25397, "name": "TECHSAT 1B (GO-32)", "group": "resource", "lat": -4.076130498137877, "lon": 154.33898016812736, "alt_km": 815.0044105872021, "timestamp": "2025-12-17T15:50:09.433219+00:00", "meta": {"OBJECT_NAME": "TECHSAT 1B (GO-32)", "OBJECT_ID": "1998-043D", "EPOCH": "2025-12-16T22:06:57.699360", "MEAN_MOTION": 14.24378325, "ECCENTRICITY": 0.00019394, "INCLINATION": 98.9923, "RA_OF_ASC_NODE": 334.2302, "ARG_OF_PERICENTER": 50.656, "MEAN_ANOMALY": 309.479, "EPHEMERIS_TYPE": 0, "CLASSIFICATION_TYPE": "U", "NORAD_CAT_ID": 25397, "ELEMENT_SET_NO": 999, "REV_AT_EPOCH": 42538, "BSTAR": 5.5557543e-05, "MEAN_MOTION_DOT": 8.2e-07, "MEAN_MOTION_DDOT": 0}, "tle": {"line1": "1 25397U 98043D   25350.92150115  .00000082  00000+0  55558-4 0  9990", "line2": "2 25397  98.9923 334.2302 0001939  50.6560 309.4790 14.24378325425382"}}, "geometry": {"type": "Point", "coordinates": [154.33898016812736, -4.076130498137877]}}, {"type": "Feature", "properties": {"norad_id": 25504, "name": "SCD 2", "group": "resource", "lat": 24.038930837654394, "lon": -175.2191311420688, "alt_km": 730.7565362904861, "timestamp": "2025-12-17T15:50:09.433235+00:00", "meta": {"OBJECT_NAME": "SCD 2", "OBJECT_ID": "1998-060A", "EPOCH": "2025-12-17T01:19:12.722304", "MEAN_MOTION": 14.4542574, "ECCENTRICITY": 0.00168331, "INCLINATION": 24.994, "RA_OF_ASC_NODE": 115.2869, "ARG_OF_PERICENTER": 359.4431, "MEAN_ANOMALY": 161.4979, "EPHEMERIS_TYPE": 0, "CLASSIFICATION_TYPE": "U", "NORAD_CAT_ID": 25504, "ELEMENT_SET_NO": 999, "REV_AT_EPOCH": 43394, "BSTAR": 6.1586514e-05, "MEAN_MOTION_DOT": 4.02e-06, "MEAN_MOTION_DDOT": 0}, "tle": {"line1": "1 25504U 98060A   25351.05500836  .00000402  00000+0  61587-4 0  9998", "line2": "2 25504  24.9940 115.2869 0016833 359.4431 161.4979 14.45425740433944"}}, "geometry": {"type": "Point", "coordinates": [-175.2191311420688, 24.038930837654394]}}, {"type": "Feature", "properties": {"norad_id": 25757, "name": "DLR-TUBSAT", "group": "resource", "lat": 2.7472149912315698, "lon": 156.7443311398269, "alt_km": 710.492180881316, "timestamp": "2025-12-17T15:50:09.433248+00:00", "meta": {"OBJECT_NAME": "DLR-TUBSAT", "OBJECT_ID": "1999-029B", "EPOCH": "2025-12-16T22:29:19.087008", "MEAN_MOTION": 14.52359362, "ECCENTRICITY": 0.00141675, "INCLINATION": 98.6565, "RA_OF_ASC_NODE": 335.5804, "ARG_OF_PERICENTER": 179.8219, "MEAN_ANOMALY": 180.2983, "EPHEMERIS_TYPE": 0, "CLASSIFICATION_TYPE": "U", "NORAD_CAT_ID": 25757, "ELEMENT_SET_NO": 999, "REV_AT_EPOCH": 40679, "BSTAR": 4.043002e-05, "MEAN_MOTION_DOT": 1.16e-06, "MEAN_MOTION_DDOT": 0}, "tle": {"line1": "1 25757U 99029B   25350.93702647  .00000116  00000+0  40430-4 0  9990", "line2": "2 25757  98.6565 335.5804 0014167 179.8219 180.2983 14.52359362406798"}}, "geometry": {"type": "Point", "coordinates": [156.7443311398269, 2.7472149912315698]}}, {"type": "Feature", "properties": {"norad_id": 25994, "name": "TERRA", "group": "resource", "lat": 30.718812742310465, "lon": 38.38573770280648, "alt_km": 687.0929876919208, "timestamp": "2025-12-17T15:50:09.433260+00:00", "meta": {"OBJECT_NAME": "TERRA", "OBJECT_ID": "1999-068A", "EPOCH": "2025-12-17T07:47:11.255712", "MEAN_MOTION": 14.60907171, "ECCENTRICITY": 0.0003582, "INCLINATION": 97.9744, "RA_OF_ASC_NODE": 42.8406, "ARG_OF_PERICENTER": 85.5469, "MEAN_ANOMALY": 342.7547, "EPHEMERIS_TYPE": 0, "CLASSIFICATION_TYPE": "U", "NORAD_CAT_ID": 25994, "ELEMENT_SET_NO": 999, "REV_AT_EPOCH": 38305, "BSTAR": 9.6205437e-05, "MEAN_MOTION_DOT": 4.26e-06, "MEAN_MOTION_DDOT": 0}, "tle": {"line1": "1 25994U 99068A   25351.32443583  .00000426  00000+0  96205-4 0  9996", "line2": "2 25994  97.9744  42.8406 0003582  85.5469 342.7547 14.60907171383057"}}, "geometry": {"type": "Point", "coordinates": [38.38573770280648, 30.718812742310465]}}, {"type": "Feature", "properties": {"norad_id": 27004, "name": "MAROC-TUBSAT", "group": "resource", "lat": -36.50135367994424, "lon": -27.150613043171585, "alt_km": 992.6398485625014, "timestamp": "2025-12-17T15:50:09.433272+00:00", "meta": {"OBJECT_NAME": "MAROC-TUBSAT", "OBJECT_ID": "2001-056D", "EPOCH": "2025-12-17T08:05:32.106624", "MEAN_MOTION": 13.70253139, "ECCENTRICITY": 0.00191349, "INCLINATION": 99.7912, "RA_OF_ASC_NODE": 159.8626, "ARG_OF_PERICENTER": 247.8877, "MEAN_ANOMALY": 178.458, "EPHEMERIS_TYPE": 0, "CLASSIFICATION_TYPE": "U", "NORAD_CAT_ID": 27004, "ELEMENT_SET_NO": 999, "REV_AT_EPOCH": 20128, "BSTAR": 2.6705369e-05, "MEAN_MOTION_DOT": -2.3e-07, "MEAN_MOTION_DDOT": 0}, "tle": {"line1": "1 27004U 01056D   25351.33717716 -.00000023  00000+0  26705-4 0  9995", "line2": "2 27004  99.7912 159.8626 0019134 247.8877 178.4580 13.70253139201280"}}, "geometry": {"type": "Point", "coordinates": [-27.150613043171585, -36.50135367994424]}}, {"type": "Feature", "properties": {"norad_id": 27424, "name": "AQUA", "group": "resource", "lat": -74.95885198773448, "lon": -14.002735216658342, "alt_km": 695.4887284806655, "timestamp": "2025-12-17T15:50:09.433285+00:00", "meta": {"OBJECT_NAME": "AQUA", "OBJECT_ID": "2002-022A", "EPOCH": "2025-12-17T08:31:26.563584", "MEAN_MOTION": 14.61820032, "ECCENTRICITY": 0.00012648, "INCLINATION": 98.4042, "RA_OF_ASC_NODE": 312.3093, "ARG_OF_PERICENTER": 113.4932, "MEAN_ANOMALY": 6.6916, "EPHEMERIS_TYPE": 0, "CLASSIFICATION_TYPE": "U", "NORAD_CAT_ID": 27424, "ELEMENT_SET_NO": 999, "REV_AT_EPOCH": 25670, "BSTAR": 0.00019120415, "MEAN_MOTION_DOT": 9.06e-06, "MEAN_MOTION_DDOT": 0}, "tle": {"line1": "1 27424U 02022A   25351.35516856  .00000906  00000+0  19120-3 0  9990", "line2": "2 27424  98.4042 312.3093 0001264 113.4932   6.6916 14.61820032256700"}}, "geometry": {"type": "Point", "coordinates": [-14.002735216658342, -74.95885198773448]}}, {"type": "Feature", "properties": {"norad_id": 28051, "name": "IRS-P6 (RESOURCESAT-1)", "group": "resource", "lat": 50.16159663950436, "lon": 21.86448409521567, "alt_km": 786.1037080140077, "timestamp": "2025-12-17T15:50:09.433296+00:00", "meta": {"OBJECT_NAME": "IRS-P6 (RESOURCESAT-1)", "OBJECT_ID": "2003-046A", "EPOCH": "2025-12-17T08:57:27.116064", "MEAN_MOTION": 14.36077063, "ECCENTRICITY": 0.00643826, "INCLINATION": 98.2179, "RA_OF_ASC_NODE": 31.566, "ARG_OF_PERICENTER": 166.8177, "MEAN_ANOMALY": 203.9694, "EPHEMERIS_TYPE": 0, "CLASSIFICATION_TYPE": "U", "NORAD_CAT_ID": 28051, "ELEMENT_SET_NO": 999, "REV_AT_EPOCH": 15443, "BSTAR": 6.8898413e-05, "MEAN_MOTION_DOT": 1.64e-06, "MEAN_MOTION_DDOT": 0}, "tle": {"line1": "1 28051U 03046A   25351.37323051  .00000164  00000+0  68898-4 0  9992", "line2": "2 28051  98.2179  31.5660 0064382 166.8177 203.9694 14.36077063154431"}}, "geometry": {"type": "Point", "coordinates": [21.86448409521567, 50.16159663950436]}}, {"type": "Feature", "properties": {"norad_id": 28220, "name": "SHIYAN-1 (SY-1)", "group": "resource", "lat": 64.06112840332277, "lon": -109.93713896116499, "alt_km": 478.348569074582, "timestamp": "2025-12-17T15:50:09.433308+00:00", "meta": {"OBJECT_NAME": "SHIYAN-1 (SY-1)", "OBJECT_ID": "2004-012A", "EPOCH": "2025-12-17T04:20:08.374272", "MEAN_MOTION": 15.28261484, "ECCENTRICITY": 0.00053626, "INCLINATION": 97.8938, "RA_OF_ASC_NODE": 52.9816, "ARG_OF_PERICENTER": 308.0316, "MEAN_ANOMALY": 52.0437, "EPHEMERIS_TYPE": 0, "CLASSIFICATION_TYPE": "U", "NORAD_CAT_ID": 28220, "ELEMENT_SET_NO": 999, "REV_AT_EPOCH": 18324, "BSTAR": 0.00041405931, "MEAN_MOTION_DOT": 0.00011329, "MEAN_MOTION_DDOT": 0}, "tle": {"line1": "1 28220U 04012A   25351.18065248  .00011329  00000+0  41406-3 0  9994", "line2": "2 28220  97.8938  52.9816 0005362 308.0316  52.0437 15.28261484183248"}}, "geometry": {"type": "Point", "coordinates": [-109.93713896116499, 64.06112840332277]}}, {"type": "Feature", "properties": {"norad_id": 28376, "name": "AURA", "group": "resource", "lat": 37.965455383489115, "lon": -64.64671828422806, "alt_km": 686.7326622996843, "timestamp": "2025-12-17T15:50:09.433319+00:00", "meta": {"OBJECT_NAME": "AURA", "OBJECT_ID": "2004-026A", "EPOCH": "2025-12-17T07:26:30.957792", "MEAN_MOTION": 14.60957539, "ECCENTRICITY": 0.00013213, "INCLINATION": 98.3189, "RA_OF_ASC_NODE": 301.5579, "ARG_OF_PERICENTER": 93.3534, "MEAN_ANOMALY": 266.7818, "EPHEMERIS_TYPE": 0, "CLASSIFICATION_TYPE": "U", "NORAD_CAT_ID": 28376, "ELEMENT_SET_NO": 999, "REV_AT_EPOCH": 13965, "BSTAR": 0.00019475252, "MEAN_MOTION_DOT": 9.06e-06, "MEAN_MOTION_DDOT": 0}, "tle": {"line1": "1 28376U 04026A   25351.31008053  .00000906  00000+0  19475-3 0  9997", "line2": "2 28376  98.3189 301.5579 0001321  93.3534 266.7818 14.60957539139651"}}, "geometry": {"type": "Point", "coordinates": [-64.64671828422806, 37.965455383489115]}}]}